[{"OBJECT_NAME":"METOP-C","OBJECT_ID":"2018-087A","EPOCH":"2026-03-05T05:54:24.723072","MEAN_MOTION":14.2149534,"ECCENTRICITY":0.00021811,"INCLINATION":98.6774,"RA_OF_ASC_NODE":125.6944,"ARG_OF_PERICENTER":106.0979,"MEAN_ANOMALY":254.0438,"EPHEMERIS_TYPE":0,"CLASSIFICATION_TYPE":"U","NORAD_CAT_ID":43689,"ELEMENT_SET_NO":999,"REV_AT_EPOCH":38006,"BSTAR":9.602811e-5,"MEAN_MOTION_DOT":1.67e-6,"MEAN_MOTION_DDOT":0},{"OBJECT_NAME":"GEO-KOMPSAT-2A","OBJECT_ID":"2018-100A","EPOCH":"2026-03-04T06:21:38.470176","MEAN_MOTION":1.00267019,"ECCENTRICITY":0.00017508,"INCLINATION":0.0084,"RA_OF_ASC_NODE":82.1864,"ARG_OF_PERICENTER":326.5345,"MEAN_ANOMALY":336.9688,"EPHEMERIS_TYPE":0,"CLASSIFICATION_TYPE":"U","NORAD_CAT_ID":43823,"ELEMENT_SET_NO":999,"REV_AT_EPOCH":2657,"BSTAR":0,"MEAN_MOTION_DOT":0,"MEAN_MOTION_DDOT":0},{"OBJECT_NAME":"METEOR-M2 2","OBJECT_ID":"2019-038A","EPOCH":"2026-03-05T06:42:03.386304","MEAN_MOTION":14.2433356,"ECCENTRICITY":0.00011573,"INCLINATION":98.9077,"RA_OF_ASC_NODE":50.0697,"ARG_OF_PERICENTER":12.0564,"MEAN_ANOMALY":348.0642,"EPHEMERIS_TYPE":0,"CLASSIFICATION_TYPE":"U","NORAD_CAT_ID":44387,"ELEMENT_SET_NO":999,"REV_AT_EPOCH":34650,"BSTAR":0.00029051328,"MEAN_MOTION_DOT":6.25e-6,"MEAN_MOTION_DDOT":0},{"OBJECT_NAME":"ARKTIKA-M 1","OBJECT_ID":"2021-016A","EPOCH":"2026-03-02T19:44:56.440608","MEAN_MOTION":2.00620868,"ECCENTRICITY":0.72428147,"INCLINATION":63.2036,"RA_OF_ASC_NODE":72.8571,"ARG_OF_PERICENTER":269.4536,"MEAN_ANOMALY":15.2019,"EPHEMERIS_TYPE":0,"CLASSIFICATION_TYPE":"U","NORAD_CAT_ID":47719,"ELEMENT_SET_NO":999,"REV_AT_EPOCH":3665,"BSTAR":0,"MEAN_MOTION_DOT":-1.08e-6,"MEAN_MOTION_DDOT":0},{"OBJECT_NAME":"FENGYUN 3E","OBJECT_ID":"2021-062A","EPOCH":"2026-03-05T06:18:08.947584","MEAN_MOTION":14.19894644,"ECCENTRICITY":0.00024284,"INCLINATION":98.7507,"RA_OF_ASC_NODE":68.8254,"ARG_OF_PERICENTER":50.6393,"MEAN_ANOMALY":309.4998,"EPHEMERIS_TYPE":0,"CLASSIFICATION_TYPE":"U","NORAD_CAT_ID":49008,"ELEMENT_SET_NO":999,"REV_AT_EPOCH":24183,"BSTAR":0.00021421557,"MEAN_MOTION_DOT":4.11e-6,"MEAN_MOTION_DDOT":0},{"OBJECT_NAME":"GOES 18","OBJECT_ID":"2022-021A","EPOCH":"2026-03-05T06:30:00.919872","MEAN_MOTION":1.00272473,"ECCENTRICITY":7.073e-5,"INCLINATION":0.0324,"RA_OF_ASC_NODE":75.9838,"ARG_OF_PERICENTER":326.9206,"MEAN_ANOMALY":80.5919,"EPHEMERIS_TYPE":0,"CLASSIFICATION_TYPE":"U","NORAD_CAT_ID":51850,"ELEMENT_SET_NO":999,"REV_AT_EPOCH":555,"BSTAR":0,"MEAN_MOTION_DOT":8.8e-7,"MEAN_MOTION_DDOT":0},{"OBJECT_NAME":"NOAA 21 (JPSS-2)","OBJECT_ID":"2022-150A","EPOCH":"2026-03-05T06:45:31.347648","MEAN_MOTION":14.19550784,"ECCENTRICITY":0.0002565,"INCLINATION":98.7551,"RA_OF_ASC_NODE":4.5981,"ARG_OF_PERICENTER":114.3891,"MEAN_ANOMALY":245.7553,"EPHEMERIS_TYPE":0,"CLASSIFICATION_TYPE":"U","NORAD_CAT_ID":54234,"ELEMENT_SET_NO":999,"REV_AT_EPOCH":17180,"BSTAR":8.0447676e-5,"MEAN_MOTION_DOT":1.26e-6,"MEAN_MOTION_DDOT":0},{"OBJECT_NAME":"METEOSAT-12 (MTG-I1)","OBJECT_ID":"2022-170C","EPOCH":"2026-03-05T05:26:14.535168","MEAN_MOTION":1.00269628,"ECCENTRICITY":0.00020952,"INCLINATION":0.702,"RA_OF_ASC_NODE":21.5116,"ARG_OF_PERICENTER":286.3388,"MEAN_ANOMALY":296.3697,"EPHEMERIS_TYPE":0,"CLASSIFICATION_TYPE":"U","NORAD_CAT_ID":54743,"ELEMENT_SET_NO":999,"REV_AT_EPOCH":1193,"BSTAR":0,"MEAN_MOTION_DOT":-1.6e-7,"MEAN_MOTION_DDOT":0},{"OBJECT_NAME":"TIANMU-1 03","OBJECT_ID":"2023-039A","EPOCH":"2026-03-05T06:40:41.428992","MEAN_MOTION":15.4400185,"ECCENTRICITY":0.00040184,"INCLINATION":97.517,"RA_OF_ASC_NODE":234.4486,"ARG_OF_PERICENTER":113.7685,"MEAN_ANOMALY":246.3985,"EPHEMERIS_TYPE":0,"CLASSIFICATION_TYPE":"U","NORAD_CAT_ID":55973,"ELEMENT_SET_NO":999,"REV_AT_EPOCH":16478,"BSTAR":0.00046543605,"MEAN_MOTION_DOT":0.00021159,"MEAN_MOTION_DDOT":0},{"OBJECT_NAME":"TIANMU-1 04","OBJECT_ID":"2023-039B","EPOCH":"2026-03-05T07:16:09.194880","MEAN_MOTION":15.44409928,"ECCENTRICITY":0.00046381,"INCLINATION":97.5104,"RA_OF_ASC_NODE":233.6353,"ARG_OF_PERICENTER":109.7765,"MEAN_ANOMALY":250.3983,"EPHEMERIS_TYPE":0,"CLASSIFICATION_TYPE":"U","NORAD_CAT_ID":55974,"ELEMENT_SET_NO":999,"REV_AT_EPOCH":16479,"BSTAR":0.0004865438,"MEAN_MOTION_DOT":0.00022436,"MEAN_MOTION_DDOT":0},{"OBJECT_NAME":"TIANMU-1 05","OBJECT_ID":"2023-039C","EPOCH":"2026-03-05T06:06:43.887168","MEAN_MOTION":15.43941394,"ECCENTRICITY":0.00037822,"INCLINATION":97.5148,"RA_OF_ASC_NODE":234.0772,"ARG_OF_PERICENTER":131.0883,"MEAN_ANOMALY":229.0692,"EPHEMERIS_TYPE":0,"CLASSIFICATION_TYPE":"U","NORAD_CAT_ID":55975,"ELEMENT_SET_NO":999,"REV_AT_EPOCH":16476,"BSTAR":0.0004790678,"MEAN_MOTION_DOT":0.00021738,"MEAN_MOTION_DDOT":0},{"OBJECT_NAME":"TIANMU-1 06","OBJECT_ID":"2023-039D","EPOCH":"2026-03-05T07:15:59.484384","MEAN_MOTION":15.44439471,"ECCENTRICITY":0.00040581,"INCLINATION":97.5161,"RA_OF_ASC_NODE":234.6631,"ARG_OF_PERICENTER":126.5829,"MEAN_ANOMALY":233.5793,"EPHEMERIS_TYPE":0,"CLASSIFICATION_TYPE":"U","NORAD_CAT_ID":55976,"ELEMENT_SET_NO":999,"REV_AT_EPOCH":16479,"BSTAR":0.00048558169,"MEAN_MOTION_DOT":0.00022412,"MEAN_MOTION_DDOT":0},{"OBJECT_NAME":"FENGYUN 3G","OBJECT_ID":"2023-055A","EPOCH":"2026-03-05T06:17:45.968640","MEAN_MOTION":15.5429248,"ECCENTRICITY":0.00107097,"INCLINATION":49.9932,"RA_OF_ASC_NODE":161.8592,"ARG_OF_PERICENTER":353.1745,"MEAN_ANOMALY":6.9076,"EPHEMERIS_TYPE":0,"CLASSIFICATION_TYPE":"U","NORAD_CAT_ID":56232,"ELEMENT_SET_NO":999,"REV_AT_EPOCH":16385,"BSTAR":0.00053662337,"MEAN_MOTION_DOT":0.00035551,"MEAN_MOTION_DDOT":0},{"OBJECT_NAME":"METEOR-M2 3","OBJECT_ID":"2023-091A","EPOCH":"2026-03-05T07:41:55.212288","MEAN_MOTION":14.24037134,"ECCENTRICITY":0.00050646,"INCLINATION":98.6223,"RA_OF_ASC_NODE":121.3627,"ARG_OF_PERICENTER":109.2244,"MEAN_ANOMALY":250.9484,"EPHEMERIS_TYPE":0,"CLASSIFICATION_TYPE":"U","NORAD_CAT_ID":57166,"ELEMENT_SET_NO":999,"REV_AT_EPOCH":13973,"BSTAR":2.811943e-5,"MEAN_MOTION_DOT":2.1e-7,"MEAN_MOTION_DDOT":0},{"OBJECT_NAME":"TIANMU-1 07","OBJECT_ID":"2023-101A","EPOCH":"2026-03-05T07:56:54.308832","MEAN_MOTION":15.29098186,"ECCENTRICITY":0.00045442,"INCLINATION":97.273,"RA_OF_ASC_NODE":117.3772,"ARG_OF_PERICENTER":146.0132,"MEAN_ANOMALY":214.14,"EPHEMERIS_TYPE":0,"CLASSIFICATION_TYPE":"U","NORAD_CAT_ID":57399,"ELEMENT_SET_NO":999,"REV_AT_EPOCH":14577,"BSTAR":0.00032352688,"MEAN_MOTION_DOT":9.07e-5,"MEAN_MOTION_DDOT":0},{"OBJECT_NAME":"TIANMU-1 08","OBJECT_ID":"2023-101B","EPOCH":"2026-03-05T07:13:31.038816","MEAN_MOTION":15.29263538,"ECCENTRICITY":0.0006583,"INCLINATION":97.2724,"RA_OF_ASC_NODE":117.1264,"ARG_OF_PERICENTER":137.5497,"MEAN_ANOMALY":222.6254,"EPHEMERIS_TYPE":0,"CLASSIFICATION_TYPE":"U","NORAD_CAT_ID":57400,"ELEMENT_SET_NO":999,"REV_AT_EPOCH":14576,"BSTAR":2.1069e-5,"MEAN_MOTION_DOT":5.26e-6,"MEAN_MOTION_DDOT":0},{"OBJECT_NAME":"TIANMU-1 09","OBJECT_ID":"2023-101C","EPOCH":"2026-03-05T06:46:44.278752","MEAN_MOTION":15.29121369,"ECCENTRICITY":0.000499,"INCLINATION":97.2678,"RA_OF_ASC_NODE":116.5868,"ARG_OF_PERICENTER":148.067,"MEAN_ANOMALY":212.0874,"EPHEMERIS_TYPE":0,"CLASSIFICATION_TYPE":"U","NORAD_CAT_ID":57401,"ELEMENT_SET_NO":999,"REV_AT_EPOCH":14576,"BSTAR":0.00034578873,"MEAN_MOTION_DOT":9.707e-5,"MEAN_MOTION_DDOT":0}]
