METOP-C                 
1 43689U 18087A   26064.24611948  .00000167  00000+0  96028-4 0  9999
2 43689  98.6774 125.6944 0002181 106.0979 254.0438 14.21495340380064
GEO-KOMPSAT-2A          
1 43823U 18100A   26063.26502859  .00000000  00000+0  00000+0 0  9992
2 43823   0.0084  82.1864 0001750 326.5345 336.9688  1.00267019 26573
METEOR-M2 2             
1 44387U 19038A   26064.27920586  .00000625  00000+0  29051-3 0  9996
2 44387  98.9077  50.0697 0001157  12.0564 348.0642 14.24333560346503
ARKTIKA-M 1             
1 47719U 21016A   26061.82287547 -.00000108  00000+0  00000+0 0  9994
2 47719  63.2036  72.8571 7242814 269.4536  15.2019  2.00620868 36653
FENGYUN 3E              
1 49008U 21062A   26064.26260356  .00000411  00000+0  21422-3 0  9999
2 49008  98.7507  68.8254 0002428  50.6393 309.4998 14.19894644241834
GOES 18                 
1 51850U 22021A   26064.27084398  .00000088  00000+0  00000+0 0  9999
2 51850   0.0324  75.9838 0000707 326.9206  80.5919  1.00272473  5555
NOAA 21 (JPSS-2)        
1 54234U 22150A   26064.28161282  .00000126  00000+0  80448-4 0  9992
2 54234  98.7551   4.5981 0002565 114.3891 245.7553 14.19550784171809
METEOSAT-12 (MTG-I1)    
1 54743U 22170C   26064.22655712 -.00000016  00000+0  00000+0 0  9999
2 54743   0.7020  21.5116 0002095 286.3388 296.3697  1.00269628 11934
TIANMU-1 03             
1 55973U 23039A   26064.27825728  .00021159  00000+0  46544-3 0  9998
2 55973  97.5170 234.4486 0004018 113.7685 246.3985 15.44001850164786
TIANMU-1 04             
1 55974U 23039B   26064.30288420  .00022436  00000+0  48654-3 0  9998
2 55974  97.5104 233.6353 0004638 109.7765 250.3983 15.44409928164792
TIANMU-1 05             
1 55975U 23039C   26064.25467462  .00021738  00000+0  47907-3 0  9992
2 55975  97.5148 234.0772 0003782 131.0883 229.0692 15.43941394164763
TIANMU-1 06             
1 55976U 23039D   26064.30277181  .00022412  00000+0  48558-3 0  9999
2 55976  97.5161 234.6631 0004058 126.5829 233.5793 15.44439471164799
FENGYUN 3G              
1 56232U 23055A   26064.26233760  .00035551  00000+0  53662-3 0  9993
2 56232  49.9932 161.8592 0010709 353.1745   6.9076 15.54292480163854
METEOR-M2 3             
1 57166U 23091A   26064.32077792  .00000021  00000+0  28119-4 0  9992
2 57166  98.6223 121.3627 0005064 109.2244 250.9484 14.24037134139730
TIANMU-1 07             
1 57399U 23101A   26064.33118413  .00009070  00000+0  32353-3 0  9996
2 57399  97.2730 117.3772 0004544 146.0132 214.1400 15.29098186145770
TIANMU-1 08             
1 57400U 23101B   26064.30105369  .00000526  00000+0  21069-4 0  9992
2 57400  97.2724 117.1264 0006583 137.5497 222.6254 15.29263538145769
TIANMU-1 09             
1 57401U 23101C   26064.28245693  .00009707  00000+0  34579-3 0  9994
2 57401  97.2678 116.5868 0004990 148.0670 212.0874 15.29121369145767
